     3.00           N                   E                   RINEX VERSION / TYPE
BRD_USR             ESA                 20190106 202618  UTCPGM / RUN BY / DATE
 GAL   4.9750E+01  3.9062E-03 -3.2654E-03  0.0000E+00       IONOSPHERIC CORR
GAUT  0.0000000000E+00 0.000000000E+00      0 2035 GSTB   0 TIME SYSTEM CORR
GPGA -2.1245796233E-09 4.440892099E-15  86400 2035 GSTB   0 TIME SYSTEM CORR
                                                            END OF HEADER
E12 2019 01 06 18 10 00 5.883931182325E-03 8.434142273472E-11 0.000000000000E+00
     1.090000000000E+02-1.550000000000E+02 2.894763435659E-09-3.050770153942E+00
    -7.223337888718E-06 3.730494063348E-04 7.078051567078E-07 5.440605508804E+03
     6.540000000000E+04 8.940696716309E-08-8.609776813249E-01 2.235174179077E-08
     9.819676744609E-01 3.351250000000E+02-8.994729939749E-01-5.773097615546E-09
    -2.925121843066E-10 5.210000000000E+02 2.035000000000E+03 0.000000000000E+00
     3.120000000000E+00 0.000000000000E+00-1.559965312481E-08-1.583248376846E-08
     6.608500000000E+04 0.000000000000E+00 0.000000000000E+00 0.000000000000E+00
E13 2019 01 06 18 10 00 3.814068622887E-04 4.263256414561E-13 0.000000000000E+00
     1.090000000000E+02-1.748125000000E+02 2.782973064856E-09 3.669057059525E-04
    -8.055940270424E-06 3.347059246153E-04 1.944601535797E-06 5.440602550507E+03
     6.540000000000E+04-4.656612873077E-08-8.662617589822E-01-1.862645149231E-09
     9.851943787404E-01 3.109062500000E+02-1.606286239561E+00-5.719881113150E-09
    -3.500145795122E-10 5.210000000000E+02 2.035000000000E+03 0.000000000000E+00
     3.120000000000E+00 4.550000000000E+02-4.656612873077E-09-5.820766091347E-09
     6.608500000000E+04 0.000000000000E+00 0.000000000000E+00 0.000000000000E+00
E14 2019 01 06 18 10 00 6.463812722359E-03-5.613287612505E-12 0.000000000000E+00
     1.090000000000E+02 5.218750000000E+00 5.587375593764E-09 2.557685481501E+00
     2.514570951462E-07 1.663980106823E-01-1.385994255543E-05 5.289377231598E+03
     6.540000000000E+04 2.358108758926E-06-1.461622656530E+00-6.090849637985E-07
     8.825513971453E-01 6.612500000000E+02 1.453564593611E+00-6.253474768039E-09
    -2.857261873569E-12 5.210000000000E+02 2.035000000000E+03 0.000000000000E+00
     3.120000000000E+00 4.550000000000E+02 3.329478204250E-08 3.748573362827E-08
     6.608500000000E+04 0.000000000000E+00 0.000000000000E+00 0.000000000000E+00
E15 2019 01 06 18 10 00 9.236830519512E-04-1.008970684779E-12 0.000000000000E+00
     1.090000000000E+02-1.633437500000E+02 2.853690296227E-09 8.646437847528E-01
    -7.612630724907E-06 3.829362103716E-04 1.985579729080E-06 5.440597871780E+03
     6.540000000000E+04-3.352761268616E-08-8.662737183375E-01 0.000000000000E+00
     9.851518619522E-01 3.082500000000E+02-1.688349683981E+00-5.724167005961E-09
    -3.100129132822E-10 5.210000000000E+02 2.035000000000E+03 0.000000000000E+00
     3.120000000000E+00 4.550000000000E+02 1.164153218269E-09 1.164153218269E-09
     6.608500000000E+04 0.000000000000E+00 0.000000000000E+00 0.000000000000E+00
E24 2019 01 06 18 10 00 6.299676548224E-03-1.965361207112E-11 0.000000000000E+00
     1.090000000000E+02 1.180000000000E+02 2.441887428699E-09-3.106426355858E+00
     5.519017577171E-06 4.646145971492E-04 1.197680830956E-05 5.440623668671E+03
     6.540000000000E+04-1.862645149231E-09-2.943111651339E+00-1.862645149231E-08
     9.879123035185E-01 9.328125000000E+01 4.465959081122E-01-5.101641075257E-09
    -2.760829285336E-10 5.210000000000E+02 2.035000000000E+03 0.000000000000E+00
     3.120000000000E+00 0.000000000000E+00 4.260800778866E-08 4.773028194904E-08
     6.608500000000E+04 0.000000000000E+00 0.000000000000E+00 0.000000000000E+00
E25 2019 01 06 18 10 00 1.931728911586E-03-1.128341864387E-11 0.000000000000E+00
     1.090000000000E+02 1.266562500000E+02 2.297595704083E-09-2.040614565776E+00
     5.805864930153E-06 2.175109693781E-04 1.175329089165E-05 5.440636835098E+03
     6.540000000000E+04 5.587935447693E-08-2.949197734335E+00 3.352761268616E-08
     9.899150983487E-01 9.968750000000E+01-1.382034745992E+00-4.999493963277E-09
    -2.803688213439E-10 5.210000000000E+02 2.035000000000E+03 0.000000000000E+00
     3.120000000000E+00 0.000000000000E+00-1.396983861923E-09-1.629814505577E-09
     6.608500000000E+04 0.000000000000E+00 0.000000000000E+00 0.000000000000E+00
E26 2019 01 06 18 10 00 5.049872794189E-03-4.339995030023E-11 0.000000000000E+00
     1.090000000000E+02-1.771562500000E+02 2.911907006901E-09-2.803420226962E-01
    -8.124858140945E-06 3.245857078582E-04 1.205131411552E-06 5.440605831146E+03
     6.540000000000E+04-5.215406417847E-08-8.573270994578E-01 9.685754776001E-08
     9.783126160645E-01 3.237812500000E+02-2.107352483324E+00-5.759168463912E-09
    -3.042983895351E-10 5.210000000000E+02 2.035000000000E+03 0.000000000000E+00
     3.120000000000E+00 0.000000000000E+00 9.313225746155E-10 1.164153218269E-09
     6.608500000000E+04 0.000000000000E+00 0.000000000000E+00 0.000000000000E+00
E27 2019 01 06 18 10 00 5.550662172027E-04-7.744915819785E-12 0.000000000000E+00
     1.090000000000E+02 1.566250000000E+02 2.334025792971E-09 1.421845848124E+00
     7.290393114090E-06 2.090765628964E-04 1.164898276329E-05 5.440638168335E+03
     6.540000000000E+04 7.450580596924E-09-2.949172605791E+00-4.470348358154E-08
     9.898815360821E-01 9.965625000000E+01-9.176188455024E-01-5.064853828635E-09
    -2.975123925853E-10 5.210000000000E+02 2.035000000000E+03 0.000000000000E+00
     3.120000000000E+00 0.000000000000E+00-2.793967723846E-09-3.259629011154E-09
     6.608500000000E+04 0.000000000000E+00 0.000000000000E+00 0.000000000000E+00
E02 2019 01 06 18 10 00 4.223367432132E-05 1.648459146963E-12 0.000000000000E+00
     1.090000000000E+02 1.370937500000E+02 2.304738858767E-09 2.336136279967E+00
     6.319954991341E-06 2.652287948877E-04 1.147203147411E-05 5.440629714966E+03
     6.540000000000E+04-1.303851604462E-08-2.946615789255E+00-2.980232238770E-08
     9.903536285238E-01 1.091562500000E+02-2.805547470771E-01-5.009137222100E-09
    -2.235807416067E-10 2.580000000000E+02 2.035000000000E+03 0.000000000000E+00
     3.120000000000E+00 0.000000000000E+00-5.820766091347E-09 0.000000000000E+00
     6.610000000000E+04 0.000000000000E+00 0.000000000000E+00 0.000000000000E+00
E03 2019 01 06 18 10 00-1.192209892906E-04-4.263256414561E-12 0.000000000000E+00
     1.090000000000E+02 3.956250000000E+01 3.719797801652E-09-2.775140071883E+00
     1.678243279457E-06 2.728686667979E-04 5.465000867844E-06 5.440606908798E+03
     6.540000000000E+04 1.303851604462E-08 1.244212078039E+00-1.117587089539E-08
     9.522138035042E-01 2.198125000000E+02 6.379017667805E-01-5.753811097899E-09
     5.307363930154E-10 2.580000000000E+02 2.035000000000E+03 0.000000000000E+00
     3.120000000000E+00 0.000000000000E+00-1.862645149231E-09 0.000000000000E+00
     6.610000000000E+04 0.000000000000E+00 0.000000000000E+00 0.000000000000E+00
E04 2019 01 06 18 10 00-1.945793628693E-04-7.830180948076E-12 0.000000000000E+00
     1.090000000000E+02 2.918750000000E+01 3.683010555030E-09-1.777926065620E+00
     1.396983861923E-06 8.145917672664E-05 6.033107638359E-06 5.440606803894E+03
     6.540000000000E+04 1.490116119385E-08 1.244262125929E+00-1.862645149231E-08
     9.522576427702E-01 2.107500000000E+02 2.001366390132E+00-5.650592512716E-09
     5.671664819034E-10 2.580000000000E+02 2.035000000000E+03 0.000000000000E+00
     3.120000000000E+00 0.000000000000E+00-7.916241884232E-09 0.000000000000E+00
     6.610000000000E+04 0.000000000000E+00 0.000000000000E+00 0.000000000000E+00
E07 2019 01 06 18 10 00-1.076536136679E-04-7.119638212316E-12 0.000000000000E+00
     1.090000000000E+02 2.956250000000E+01 3.724083694463E-09 2.507943740346E+00
     1.439824700356E-06 1.435340382159E-04 5.669891834259E-06 5.440605134964E+03
     6.540000000000E+04 5.587935447693E-09 1.244213459033E+00 3.352761268616E-08
     9.522580392210E-01 2.146562500000E+02 6.758134102269E-02-5.683451024262E-09
     5.421654405097E-10 2.580000000000E+02 2.035000000000E+03 0.000000000000E+00
     3.120000000000E+00 0.000000000000E+00 2.328306436539E-10 0.000000000000E+00
     6.610000000000E+04 0.000000000000E+00 0.000000000000E+00 0.000000000000E+00
E08 2019 01 06 18 10 00 6.428622407839E-03-7.460698725481E-12 0.000000000000E+00
     1.090000000000E+02 3.240625000000E+01 3.647294781610E-09 2.868986472940E+00
     1.516193151474E-06 2.267863601446E-04 5.584210157394E-06 5.440606006622E+03
     6.540000000000E+04-2.793967723846E-08 1.235574518158E+00 3.725290298462E-09
     9.582006889505E-01 2.218437500000E+02 4.931835101128E-01-5.669164714894E-09
     5.350222858257E-10 2.580000000000E+02 2.035000000000E+03 0.000000000000E+00
     3.120000000000E+00 0.000000000000E+00-8.381903171539E-09 0.000000000000E+00
     6.610000000000E+04 0.000000000000E+00 0.000000000000E+00 0.000000000000E+00
E09 2019 01 06 18 10 00 6.566121650394E-03-1.129762949859E-11 0.000000000000E+00
     1.090000000000E+02 2.937500000000E+01 3.560862609935E-09-6.913407729810E-01
     1.437962055206E-06 2.466265577823E-04 5.781650543213E-06 5.440610080719E+03
     6.540000000000E+04-2.607703208923E-08 1.235570721886E+00-4.097819328308E-08
     9.582307446025E-01 2.169062500000E+02 1.252615881165E-01-5.642020727096E-09
     5.875244727526E-10 2.580000000000E+02 2.035000000000E+03 0.000000000000E+00
     3.120000000000E+00 0.000000000000E+00-3.492459654808E-09 0.000000000000E+00
     6.610000000000E+04 0.000000000000E+00 0.000000000000E+00 0.000000000000E+00
